ONEWEB-0266             
1 48984U 21060T   23293.42104093  .00000112  00000+0  25835-3 0  9993
2 48984  87.9060  61.9754 0001517  99.8888 260.2414 13.16594649111843
ONEWEB-0267             
1 48985U 21060U   23293.43158963  .00000092  00000+0  20755-3 0  9993
2 48985  87.9060  61.9743 0001892  83.4365 276.6981 13.16597122111857
ONEWEB-0268             
1 48986U 21060V   23293.39994708 -.00000019  00000+0 -84596-4 0  9999
2 48986  87.9060  61.9838 0001652  97.8364 262.2954 13.16591248112119
ONEWEB-0269             
1 48987U 21060W   23293.38094265  .00000080  00000+0  17650-3 0  9990
2 48987  87.9053  62.0157 0001691  99.7465 260.3857 13.16596211111883
ONEWEB-0270             
1 48988U 21060X   23293.39782039 -.00000322  00000+0 -87579-3 0  9993
2 48988  87.9055  61.9973 0002001  86.9657 273.1702 13.16596822111921
ONEWEB-0271             
1 48989U 21060Y   23293.38514845  .00000066  00000+0  13821-3 0  9993
2 48989  87.9055  61.9752 0001764  81.2384 278.8947 13.16593312111921
ONEWEB-0272             
1 48990U 21060Z   23293.40836497 -.00000268  00000+0 -73567-3 0  9997
2 48990  87.9059  61.9954 0001759  85.6433 274.4899 13.16593880111870
